[
    {
        "Altitude(m)": 558091.6959707254,
        "Argument of Periapsis(deg)": 0.019868973332140504,
        "Eccentricity": 0.0,
        "Inclination(deg)": 53.0,
        "Latitude(deg)": 45.20990184900114,
        "Longitude(deg)": 3.5993194903454713,
        "Mean Anomaly(deg)": -242.45242139726722,
        "RAAN(deg)": 334.97043010558406,
        "Satellite Name": "Starlink Shell 1 1479",
        "Satellite Number": 1479,
        "Semi-Major Axis(m)": 6931778.249405717,
        "Time(s)": 570
    },
    {
        "Altitude(m)": 558017.0954909348,
        "Argument of Periapsis(deg)": 0.02021755181165174,
        "Eccentricity": 0.0,
        "Inclination(deg)": 53.0,
        "Latitude(deg)": 44.87854897892507,
        "Longitude(deg)": 4.309865179005245,
        "Mean Anomaly(deg)": -241.82559019371052,
        "RAAN(deg)": 334.9699113355066,
        "Satellite Name": "Starlink Shell 1 1479",
        "Satellite Number": 1479,
        "Semi-Major Axis(m)": 6931778.249405717,
        "Time(s)": 580
    },
    {
        "Altitude(m)": 557941.5795005827,
        "Argument of Periapsis(deg)": 0.020566130291162974,
        "Eccentricity": 0.0,
        "Inclination(deg)": 53.0,
        "Latitude(deg)": 44.5422847885851,
        "Longitude(deg)": 5.011775278722714,
        "Mean Anomaly(deg)": -241.19875899015378,
        "RAAN(deg)": 334.9693925654292,
        "Satellite Name": "Starlink Shell 1 1479",
        "Satellite Number": 1479,
        "Semi-Major Axis(m)": 6931778.249405717,
        "Time(s)": 590
    },
    {
        "Altitude(m)": 557865.1953364089,
        "Argument of Periapsis(deg)": 0.020914708770674213,
        "Eccentricity": 0.0,
        "Inclination(deg)": 53.0,
        "Latitude(deg)": 44.201220902168394,
        "Longitude(deg)": 5.705126227274057,
        "Mean Anomaly(deg)": -240.5719277865971,
        "RAAN(deg)": 334.96887379535167,
        "Satellite Name": "Starlink Shell 1 1479",
        "Satellite Number": 1479,
        "Semi-Major Axis(m)": 6931778.249405717,
        "Time(s)": 600
    },
    {
        "Altitude(m)": 557787.9909836097,
        "Argument of Periapsis(deg)": 0.021263287250185448,
        "Eccentricity": 0.0,
        "Inclination(deg)": 53.0,
        "Latitude(deg)": 43.85546729013028,
        "Longitude(deg)": 6.389999932609861,
        "Mean Anomaly(deg)": -239.9450965830404,
        "RAAN(deg)": 334.96835502527415,
        "Satellite Name": "Starlink Shell 1 1479",
        "Satellite Number": 1479,
        "Semi-Major Axis(m)": 6931778.249405717,
        "Time(s)": 610
    },
    {
        "Altitude(m)": 557710.0150518166,
        "Argument of Periapsis(deg)": 0.021611865729696686,
        "Eccentricity": 0.0,
        "Inclination(deg)": 53.0,
        "Latitude(deg)": 43.50513222081365,
        "Longitude(deg)": 7.0664838232220655,
        "Mean Anomaly(deg)": -239.31826537948362,
        "RAAN(deg)": 334.96783625519674,
        "Satellite Name": "Starlink Shell 1 1479",
        "Satellite Number": 1479,
        "Semi-Major Axis(m)": 6931778.249405717,
        "Time(s)": 620
    },
    {
        "Altitude(m)": 557631.3167507428,
        "Argument of Periapsis(deg)": 0.02196044420920792,
        "Eccentricity": 0.0,
        "Inclination(deg)": 53.0,
        "Latitude(deg)": 43.15032221935625,
        "Longitude(deg)": 7.734669235282438,
        "Mean Anomaly(deg)": -238.69143417592693,
        "RAAN(deg)": 334.9673174851193,
        "Satellite Name": "Starlink Shell 1 1479",
        "Satellite Number": 1479,
        "Semi-Major Axis(m)": 6931778.249405717,
        "Time(s)": 630
    },
    {
        "Altitude(m)": 557551.9458655415,
        "Argument of Periapsis(deg)": 0.02230902268871916,
        "Eccentricity": 0.0,
        "Inclination(deg)": 53.0,
        "Latitude(deg)": 42.79114203346623,
        "Longitude(deg)": 8.39465233944439,
        "Mean Anomaly(deg)": -238.06460297237024,
        "RAAN(deg)": 334.96679871504176,
        "Satellite Name": "Starlink Shell 1 1479",
        "Satellite Number": 1479,
        "Semi-Major Axis(m)": 6931778.249405717,
        "Time(s)": 640
    },
    {
        "Altitude(m)": 557471.9527317986,
        "Argument of Periapsis(deg)": 0.022657601168230398,
        "Eccentricity": 0.0,
        "Inclination(deg)": 53.0,
        "Latitude(deg)": 42.42769460563316,
        "Longitude(deg)": 9.04653256469762,
        "Mean Anomaly(deg)": -237.43777176881352,
        "RAAN(deg)": 334.9662799449643,
        "Satellite Name": "Starlink Shell 1 1479",
        "Satellite Number": 1479,
        "Semi-Major Axis(m)": 6931778.249405717,
        "Time(s)": 650
    },
    {
        "Altitude(m)": 557391.3882102461,
        "Argument of Periapsis(deg)": 0.023006179647741636,
        "Eccentricity": 0.0,
        "Inclination(deg)": 53.0,
        "Latitude(deg)": 42.06008105136679,
        "Longitude(deg)": 9.69041272186109,
        "Mean Anomaly(deg)": -236.8109405652568,
        "RAAN(deg)": 334.96576117488684,
        "Satellite Name": "Starlink Shell 1 1479",
        "Satellite Number": 1479,
        "Semi-Major Axis(m)": 6931778.249405717,
        "Time(s)": 660
    },
    {
        "Altitude(m)": 557310.3036611727,
        "Argument of Periapsis(deg)": 0.023354758127252868,
        "Eccentricity": 0.0,
        "Inclination(deg)": 53.0,
        "Latitude(deg)": 41.6884006430509,
        "Longitude(deg)": 10.326399145774392,
        "Mean Anomaly(deg)": -236.1841093617001,
        "RAAN(deg)": 334.9652424048093,
        "Satellite Name": "Starlink Shell 1 1479",
        "Satellite Number": 1479,
        "Semi-Major Axis(m)": 6931778.249405717,
        "Time(s)": 670
    },
    {
        "Altitude(m)": 557228.7509185703,
        "Argument of Periapsis(deg)": 0.023703336606764106,
        "Eccentricity": 0.0,
        "Inclination(deg)": 53.0,
        "Latitude(deg)": 41.31275079901419,
        "Longitude(deg)": 10.954600343224378,
        "Mean Anomaly(deg)": -235.55727815814336,
        "RAAN(deg)": 334.9647236347319,
        "Satellite Name": "Starlink Shell 1 1479",
        "Satellite Number": 1479,
        "Semi-Major Axis(m)": 6931778.249405717,
        "Time(s)": 680
    },
    {
        "Altitude(m)": 557146.7822639631,
        "Argument of Periapsis(deg)": 0.024051915086275345,
        "Eccentricity": 0.0,
        "Inclination(deg)": 53.0,
        "Latitude(deg)": 40.93322707743756,
        "Longitude(deg)": 11.575127172169228,
        "Mean Anomaly(deg)": -234.93044695458673,
        "RAAN(deg)": 334.9642048646544,
        "Satellite Name": "Starlink Shell 1 1479",
        "Satellite Number": 1479,
        "Semi-Major Axis(m)": 6931778.249405717,
        "Time(s)": 690
    },
    {
        "Altitude(m)": 557064.4504000357,
        "Argument of Periapsis(deg)": 0.024400493565786583,
        "Eccentricity": 0.0,
        "Inclination(deg)": 53.0,
        "Latitude(deg)": 40.54992317472278,
        "Longitude(deg)": 12.188093039112834,
        "Mean Anomaly(deg)": -234.30361575102992,
        "RAAN(deg)": 334.96368609457693,
        "Satellite Name": "Starlink Shell 1 1479",
        "Satellite Number": 1479,
        "Semi-Major Axis(m)": 6931778.249405717,
        "Time(s)": 700
    },
    {
        "Altitude(m)": 556981.8084239708,
        "Argument of Periapsis(deg)": 0.024749072045297815,
        "Eccentricity": 0.0,
        "Inclination(deg)": 53.0,
        "Latitude(deg)": 40.16293092796493,
        "Longitude(deg)": 12.79361260140106,
        "Mean Anomaly(deg)": -233.6767845474732,
        "RAAN(deg)": 334.9631673244995,
        "Satellite Name": "Starlink Shell 1 1479",
        "Satellite Number": 1479,
        "Semi-Major Axis(m)": 6931778.249405717,
        "Time(s)": 710
    },
    {
        "Altitude(m)": 556898.9098005694,
        "Argument of Periapsis(deg)": 0.025097650524809053,
        "Eccentricity": 0.0,
        "Inclination(deg)": 53.0,
        "Latitude(deg)": 39.77234032118767,
        "Longitude(deg)": 13.391801999781565,
        "Mean Anomaly(deg)": -233.04995334391646,
        "RAAN(deg)": 334.962648554422,
        "Satellite Name": "Starlink Shell 1 1479",
        "Satellite Number": 1479,
        "Semi-Major Axis(m)": 6931778.249405717,
        "Time(s)": 720
    },
    {
        "Altitude(m)": 556815.808335154,
        "Argument of Periapsis(deg)": 0.02544622900432029,
        "Eccentricity": 0.0,
        "Inclination(deg)": 53.0,
        "Latitude(deg)": 39.378239495017006,
        "Longitude(deg)": 13.982779107876222,
        "Mean Anomaly(deg)": -232.42312214035985,
        "RAAN(deg)": 334.9621297843445,
        "Satellite Name": "Starlink Shell 1 1479",
        "Satellite Number": 1479,
        "Semi-Major Axis(m)": 6931778.249405717,
        "Time(s)": 730
    },
    {
        "Altitude(m)": 556732.5581462516,
        "Argument of Periapsis(deg)": 0.02579480748383153,
        "Eccentricity": 0.0,
        "Inclination(deg)": 53.0,
        "Latitude(deg)": 38.98071475947498,
        "Longitude(deg)": 14.566662285191326,
        "Mean Anomaly(deg)": -231.79629093680302,
        "RAAN(deg)": 334.9616110142671,
        "Satellite Name": "Starlink Shell 1 1479",
        "Satellite Number": 1479,
        "Semi-Major Axis(m)": 6931778.249405717,
        "Time(s)": 740
    },
    {
        "Altitude(m)": 556649.213638088,
        "Argument of Periapsis(deg)": 0.026143385963342765,
        "Eccentricity": 0.0,
        "Inclination(deg)": 53.0,
        "Latitude(deg)": 38.579850609609494,
        "Longitude(deg)": 15.143570658857746,
        "Mean Anomaly(deg)": -231.16945973324636,
        "RAAN(deg)": 334.96109224418956,
        "Satellite Name": "Starlink Shell 1 1479",
        "Satellite Number": 1479,
        "Semi-Major Axis(m)": 6931778.249405717,
        "Time(s)": 750
    }
]